{"type": "FeatureCollection", "features": [ {"type": "Feature", "properties": {"norad_id": 44804, "name": "CARTOSAT-3", "group": "resource", "lat": 58.481426910105036, "lon": 47.0298458740933, "alt_km": 493.49338463611, "timestamp": "2025-12-25T22:42:16.654154+00:00", "meta": {"OBJECT_NAME": "CARTOSAT-3", "OBJECT_ID": "2019-081A", "EPOCH": "2025-12-25T17:42:11.124000", "MEAN_MOTION": 15.19260315, "ECCENTRICITY": 0.0013682, "INCLINATION": 97.4559, "RA_OF_ASC_NODE": 59.1548, "ARG_OF_PERICENTER": 42.1168, "MEAN_ANOMALY": 318.1116, "EPHEMERIS_TYPE": 0, "CLASSIFICATION_TYPE": "U", "NORAD_CAT_ID": 44804, "ELEMENT_SET_NO": 999, "REV_AT_EPOCH": 33713, "BSTAR": 0.0002137, "MEAN_MOTION_DOT": 4.447e-05, "MEAN_MOTION_DDOT": 0}, "tle": {"line1": "1 44804U 19081A   25359.73762875  .00004447  00000+0  21370-3 0  9992", "line2": "2 44804  97.4559  59.1548 0013682  42.1168 318.1116 15.19260315337136"}}, "geometry": {"type": "Point", "coordinates": [47.0298458740933, 58.481426910105036]}}, {"type": "Feature", "properties": {"norad_id": 44819, "name": "GAOFEN-12 01", "group": "resource", "lat": 45.738783414030344, "lon": -166.02062745587412, "alt_km": 622.0874332132635, "timestamp": "2025-12-25T22:42:16.654165+00:00", "meta": {"OBJECT_NAME": "GAOFEN-12 01", "OBJECT_ID": "2019-082A", "EPOCH": "2025-12-25T18:51:33.552864", "MEAN_MOTION": 14.80672128, "ECCENTRICITY": 0.0002266, "INCLINATION": 97.8125, "RA_OF_ASC_NODE": 5.7243, "ARG_OF_PERICENTER": 176.5297, "MEAN_ANOMALY": 183.5932, "EPHEMERIS_TYPE": 0, "CLASSIFICATION_TYPE": "U", "NORAD_CAT_ID": 44819, "ELEMENT_SET_NO": 999, "REV_AT_EPOCH": 32843, "BSTAR": 7.3927e-05, "MEAN_MOTION_DOT": 5.17e-06, "MEAN_MOTION_DDOT": 0}, "tle": {"line1": "1 44819U 19082A   25359.78580501  .00000517  00000+0  73927-4 0  9998", "line2": "2 44819  97.8125   5.7243 0002266 176.5297 183.5932 14.80672128328434"}}, "geometry": {"type": "Point", "coordinates": [-166.02062745587412, 45.738783414030344]}}, {"type": "Feature", "properties": {"norad_id": 44873, "name": "CSG-1", "group": "resource", "lat": -44.17790898423794, "lon": -171.19379214906368, "alt_km": 629.8671861227995, "timestamp": "2025-12-25T22:42:16.654175+00:00", "meta": {"OBJECT_NAME": "CSG-1", "OBJECT_ID": "2019-092A", "EPOCH": "2025-12-25T18:02:42.967680", "MEAN_MOTION": 14.82161611, "ECCENTRICITY": 0.0001459, "INCLINATION": 97.8806, "RA_OF_ASC_NODE": 180.8801, "ARG_OF_PERICENTER": 85.0484, "MEAN_ANOMALY": 275.0895, "EPHEMERIS_TYPE": 0, "CLASSIFICATION_TYPE": "U", "NORAD_CAT_ID": 44873, "ELEMENT_SET_NO": 999, "REV_AT_EPOCH": 32578, "BSTAR": 8.6722e-05, "MEAN_MOTION_DOT": 6.38e-06, "MEAN_MOTION_DDOT": 0}, "tle": {"line1": "1 44873U 19092A   25359.75188620  .00000638  00000+0  86722-4 0  9993", "line2": "2 44873  97.8806 180.8801 0001459  85.0484 275.0895 14.82161611325782"}}, "geometry": {"type": "Point", "coordinates": [-171.19379214906368, -44.17790898423794]}}, {"type": "Feature", "properties": {"norad_id": 46277, "name": "NEMO-HD", "group": "resource", "lat": 1.1851619257013748, "lon": 58.72597533320042, "alt_km": 446.86562468788907, "timestamp": "2025-12-25T22:42:16.654185+00:00", "meta": {"OBJECT_NAME": "NEMO-HD", "OBJECT_ID": "2020-061F", "EPOCH": "2025-12-25T18:01:22.365984", "MEAN_MOTION": 15.40592324, "ECCENTRICITY": 0.0001034, "INCLINATION": 97.2188, "RA_OF_ASC_NODE": 58.6836, "ARG_OF_PERICENTER": 52.5544, "MEAN_ANOMALY": 307.5797, "EPHEMERIS_TYPE": 0, "CLASSIFICATION_TYPE": "U", "NORAD_CAT_ID": 46277, "ELEMENT_SET_NO": 999, "REV_AT_EPOCH": 29524, "BSTAR": 0.00027011, "MEAN_MOTION_DOT": 0.00010909, "MEAN_MOTION_DDOT": 0}, "tle": {"line1": "1 46277U 20061F   25359.75095331  .00010909  00000+0  27011-3 0  9994", "line2": "2 46277  97.2188  58.6836 0001034  52.5544 307.5797 15.40592324295247"}}, "geometry": {"type": "Point", "coordinates": [58.72597533320042, 1.1851619257013748]}}, {"type": "Feature", "properties": {"norad_id": 46984, "name": "SENTINEL-6A", "group": "resource", "lat": 25.409800204173727, "lon": -57.31568529647567, "alt_km": 1338.660445341412, "timestamp": "2025-12-25T22:42:16.654195+00:00", "meta": {"OBJECT_NAME": "SENTINEL-6A", "OBJECT_ID": "2020-086A", "EPOCH": "2025-12-25T18:09:57.449088", "MEAN_MOTION": 12.80930775, "ECCENTRICITY": 0.0007755, "INCLINATION": 66.0401, "RA_OF_ASC_NODE": 135.271, "ARG_OF_PERICENTER": 269.4393, "MEAN_ANOMALY": 90.5733, "EPHEMERIS_TYPE": 0, "CLASSIFICATION_TYPE": "U", "NORAD_CAT_ID": 46984, "ELEMENT_SET_NO": 999, "REV_AT_EPOCH": 23811, "BSTAR": 4.7279e-05, "MEAN_MOTION_DOT": -5e-07, "MEAN_MOTION_DDOT": 0}, "tle": {"line1": "1 46984U 20086A   25359.75691492 -.00000050  00000+0  47279-4 0  9992", "line2": "2 46984  66.0401 135.2710 0007755 269.4393  90.5733 12.80930775238113"}}, "geometry": {"type": "Point", "coordinates": [-57.31568529647567, 25.409800204173727]}}, {"type": "Feature", "properties": {"norad_id": 48079, "name": "GAOFEN-12 02", "group": "resource", "lat": 33.50994822480764, "lon": 179.22263626593414, "alt_km": 624.2959740692168, "timestamp": "2025-12-25T22:42:16.654205+00:00", "meta": {"OBJECT_NAME": "GAOFEN-12 02", "OBJECT_ID": "2021-026A", "EPOCH": "2025-12-25T18:48:14.279904", "MEAN_MOTION": 14.80690151, "ECCENTRICITY": 0.0003544, "INCLINATION": 97.9858, "RA_OF_ASC_NODE": 353.7274, "ARG_OF_PERICENTER": 74.9133, "MEAN_ANOMALY": 285.2471, "EPHEMERIS_TYPE": 0, "CLASSIFICATION_TYPE": "U", "NORAD_CAT_ID": 48079, "ELEMENT_SET_NO": 999, "REV_AT_EPOCH": 25610, "BSTAR": 7.7686e-05, "MEAN_MOTION_DOT": 5.44e-06, "MEAN_MOTION_DDOT": 0}, "tle": {"line1": "1 48079U 21026A   25359.78349861  .00000544  00000+0  77686-4 0  9999", "line2": "2 48079  97.9858 353.7274 0003544  74.9133 285.2471 14.80690151256108"}}, "geometry": {"type": "Point", "coordinates": [179.22263626593414, 33.50994822480764]}}, {"type": "Feature", "properties": {"norad_id": 48268, "name": "PLEIADES NEO 3", "group": "resource", "lat": -77.1854975913667, "lon": -145.3921412479858, "alt_km": 632.3056580455541, "timestamp": "2025-12-25T22:42:16.654215+00:00", "meta": {"OBJECT_NAME": "PLEIADES NEO 3", "OBJECT_ID": "2021-034A", "EPOCH": "2025-12-25T18:17:37.624128", "MEAN_MOTION": 14.81672436, "ECCENTRICITY": 0.0001326, "INCLINATION": 97.8942, "RA_OF_ASC_NODE": 72.0165, "ARG_OF_PERICENTER": 88.7869, "MEAN_ANOMALY": 271.3496, "EPHEMERIS_TYPE": 0, "CLASSIFICATION_TYPE": "U", "NORAD_CAT_ID": 48268, "ELEMENT_SET_NO": 999, "REV_AT_EPOCH": 25197, "BSTAR": 3.7304e-05, "MEAN_MOTION_DOT": 2.42e-06, "MEAN_MOTION_DDOT": 0}, "tle": {"line1": "1 48268U 21034A   25359.76224102  .00000242  00000+0  37304-4 0  9994", "line2": "2 48268  97.8942  72.0165 0001326  88.7869 271.3496 14.81672436251976"}}, "geometry": {"type": "Point", "coordinates": [-145.3921412479858, -77.1854975913667]}}, {"type": "Feature", "properties": {"norad_id": 49070, "name": "PLEIADES NEO 4", "group": "resource", "lat": 77.20072530534074, "lon": 34.54884341885958, "alt_km": 615.849029248674, "timestamp": "2025-12-25T22:42:16.654228+00:00", "meta": {"OBJECT_NAME": "PLEIADES NEO 4", "OBJECT_ID": "2021-073E", "EPOCH": "2025-12-25T19:06:13.955040", "MEAN_MOTION": 14.81672316, "ECCENTRICITY": 0.000136, "INCLINATION": 97.8943, "RA_OF_ASC_NODE": 72.0456, "ARG_OF_PERICENTER": 88.0145, "MEAN_ANOMALY": 272.1223, "EPHEMERIS_TYPE": 0, "CLASSIFICATION_TYPE": "U", "NORAD_CAT_ID": 49070, "ELEMENT_SET_NO": 999, "REV_AT_EPOCH": 23569, "BSTAR": -6.1229e-05, "MEAN_MOTION_DOT": -5.34e-06, "MEAN_MOTION_DDOT": 0}, "tle": {"line1": "1 49070U 21073E   25359.79599485 -.00000534  00000+0 -61229-4 0  9990", "line2": "2 49070  97.8943  72.0456 0001360  88.0145 272.1223 14.81672316235695"}}, "geometry": {"type": "Point", "coordinates": [34.54884341885958, 77.20072530534074]}}, {"type": "Feature", "properties": {"norad_id": 49260, "name": "LANDSAT 9", "group": "resource", "lat": 10.310366774320455, "lon": 66.35988586938095, "alt_km": 703.9495838690473, "timestamp": "2025-12-25T22:42:16.654238+00:00", "meta": {"OBJECT_NAME": "LANDSAT 9", "OBJECT_ID": "2021-088A", "EPOCH": "2025-12-25T16:03:52.818048", "MEAN_MOTION": 14.57110926, "ECCENTRICITY": 0.0001112, "INCLINATION": 98.2077, "RA_OF_ASC_NODE": 67.5919, "ARG_OF_PERICENTER": 93.3722, "MEAN_ANOMALY": 266.7603, "EPHEMERIS_TYPE": 0, "CLASSIFICATION_TYPE": "U", "NORAD_CAT_ID": 49260, "ELEMENT_SET_NO": 999, "REV_AT_EPOCH": 22573, "BSTAR": 0.00011103, "MEAN_MOTION_DOT": 4.55e-06, "MEAN_MOTION_DDOT": 0}, "tle": {"line1": "1 49260U 21088A   25359.66936132  .00000455  00000+0  11103-3 0  9992", "line2": "2 49260  98.2077  67.5919 0001112  93.3722 266.7603 14.57110926225739"}}, "geometry": {"type": "Point", "coordinates": [66.35988586938095, 10.310366774320455]}}, {"type": "Feature", "properties": {"norad_id": 51444, "name": "CSG-2", "group": "resource", "lat": 44.01824797072541, "lon": 8.761460191719355, "alt_km": 618.2420737201846, "timestamp": "2025-12-25T22:42:16.654270+00:00", "meta": {"OBJECT_NAME": "CSG-2", "OBJECT_ID": "2022-008A", "EPOCH": "2025-12-25T17:14:07.033344", "MEAN_MOTION": 14.82155588, "ECCENTRICITY": 0.0001446, "INCLINATION": 97.8805, "RA_OF_ASC_NODE": 180.8455, "ARG_OF_PERICENTER": 82.1423, "MEAN_ANOMALY": 277.9955, "EPHEMERIS_TYPE": 0, "CLASSIFICATION_TYPE": "U", "NORAD_CAT_ID": 51444, "ELEMENT_SET_NO": 999, "REV_AT_EPOCH": 21089, "BSTAR": 5.2719e-05, "MEAN_MOTION_DOT": 3.68e-06, "MEAN_MOTION_DDOT": 0}, "tle": {"line1": "1 51444U 22008A   25359.71813696  .00000368  00000+0  52719-4 0  9999", "line2": "2 51444  97.8805 180.8455 0001446  82.1423 277.9955 14.82155588210894"}}, "geometry": {"type": "Point", "coordinates": [8.761460191719355, 44.01824797072541]}}]}